NORAD_CAT_ID,OBJECT_NAME,OBJECT_TYPE,EPOCH,MEAN_MOTION,ECCENTRICITY,INCLINATION,RA_OF_ASC_NODE,ARG_OF_PERICENTER,MEAN_ANOMALY,BSTAR,MEAN_MOTION_DOT,MEAN_MOTION_DDOT,TLE_LINE0,TLE_LINE1,TLE_LINE2,SEMIMAJOR_AXIS,PERIOD,APOGEE,PERIGEE,DECAYED
51742.0,STARLINK-3521,PAYLOAD,2022-03-26 22:00:00,15.73234787,0.0001008,53.2173,334.6659,102.3896,223.771,-0.00061091,-0.00085613,0.0,0 STARLINK-3521,1 51742U 22016AE  22085.91667824 -.00085613  00000-0 -61091-3 0  9995,2 51742  53.2173 334.6659 0001008 102.3896 223.7710 15.73234787  6539,6727.795999999999,91.531,350.339,348.983,0.0
51742.0,STARLINK-3521,PAYLOAD,2022-03-27 06:00:00,15.73185438,8.1e-05,53.217,333.0168,97.4985,317.597,0.00028211,0.00039132,0.0,0 STARLINK-3521,1 51742U 22016AE  22086.25001157  .00039132  00000-0  28211-3 0  9994,2 51742  53.2170 333.0168 0000810  97.4985 317.5970 15.73185438  6580,6727.937,91.534,350.347,349.25699999999995,0.0
51742.0,STARLINK-3521,PAYLOAD,2022-03-27 14:00:01,15.7278345,0.0001252,53.2171,331.3518,106.5619,37.5023,0.0044732,0.00667838,0.0,0 STARLINK-3521,1 51742U 22016AE  22086.58334491  .00667838  00000-0  44732-2 0  9995,2 51742  53.2171 331.3518 0001252 106.5619  37.5023 15.72783450  6640,6729.083000000001,91.557,351.791,350.106,0.0
51742.0,STARLINK-3521,PAYLOAD,2022-03-27 22:00:01,15.73223747,0.0001113,53.2175,329.7176,97.824,135.2338,-7.7419e-05,-0.00011481,0.0,0 STARLINK-3521,1 51742U 22016AE  22086.91668981 -.00011481  00000-0 -77419-4 0  9995,2 51742  53.2175 329.7176 0001113  97.8240 135.2338 15.73223747  3701,6727.8269999999975,91.532,350.441,348.944,0.0
51742.0,STARLINK-3521,PAYLOAD,2022-03-28 06:00:00,15.73226714,0.0001095999999999,53.2172,328.0681,94.4641,227.5073,-1.4957e-06,-8.3e-06,0.0,0 STARLINK-3521,1 51742U 22016AE  22087.25001157 -.00000830  00000-0 -14957-5 0  9994,2 51742  53.2172 328.0681 0001096  94.4641 227.5073 15.73226714  6744,6727.819,91.532,350.421,348.94699999999995,0.0
51742.0,STARLINK-3521,PAYLOAD,2022-03-28 14:00:01,15.73208097,0.0001095999999999,53.2172,326.4169,110.2608,300.7416,4.6221e-05,5.874e-05,0.0,0 STARLINK-3521,1 51742U 22016AE  22087.58335648  .00005874  00000-0  46221-4 0  9994,2 51742  53.2172 326.4169 0001096 110.2608 300.7416 15.73208097  3709,6727.871999999999,91.533,350.474,349.0,0.0
51742.0,STARLINK-3521,PAYLOAD,2022-03-28 22:00:00,15.73246417,0.0001007,53.2169,324.7695,98.6791,41.1986,-0.00062328,-0.0008736,0.0,0 STARLINK-3521,1 51742U 22016AE  22087.91667824 -.00087360  00000-0 -62328-3 0  9992,2 51742  53.2169 324.7695 0001007  98.6791  41.1986 15.73246417  3687,6727.763000000001,91.53,350.305,348.95,0.0
51742.0,STARLINK-3521,PAYLOAD,2022-03-29 04:00:00,15.73191123,9.59e-05,53.2166,323.5328,94.2562,22.3342,-0.00043405,-0.00061069,0.0,0 STARLINK-3521,1 51742U 22016AE  22088.16667824 -.00061069  00000-0 -43405-3 0  9993,2 51742  53.2166 323.5328 0000959  94.2562  22.3342 15.73191123  6882,6727.92,91.534,350.431,349.14,0.0
51742.0,STARLINK-3521,PAYLOAD,2022-03-29 14:00:01,15.73095002,0.0001088,53.2169,321.4687,109.3498,208.3632,0.0006824,0.00095815,0.0,0 STARLINK-3521,1 51742U 22016AE  22088.58334491  .00095815  00000-0  68240-3 0  9998,2 51742  53.2169 321.4687 0001088 109.3498 208.3632 15.73095002  3671,6728.195,91.539,350.792,349.32800000000015,0.0
51742.0,STARLINK-3521,PAYLOAD,2022-03-29 22:00:00,15.73156061,0.000104,53.2169,319.8216,97.39,309.1623,0.00028481,0.00039464,0.0,0 STARLINK-3521,1 51742U 22016AE  22088.91667824  .00039464  00000-0  28481-3 0  9995,2 51742  53.2169 319.8216 0001040  97.3900 309.1623 15.73156061  3664,6728.02,91.536,350.585,349.186,0.0
51742.0,STARLINK-3521,PAYLOAD,2022-03-30 14:00:01,15.73197092,0.0001092,53.2165,316.5207,107.5537,116.9112,0.00033045,0.00046005,0.0,0 STARLINK-3521,1 51742U 22016AE  22089.58335648  .00046005  00000-0  33045-3 0  9996,2 51742  53.2165 316.5207 0001092 107.5537 116.9112 15.73197092  3667,6727.903,91.533,350.50300000000016,349.034,0.0
51742.0,STARLINK-3521,PAYLOAD,2022-03-30 22:00:00,15.73231585,0.0001011,53.2162,314.8733,97.1556,216.1887,-0.0003717,-0.00052529,0.0,0 STARLINK-3521,1 51742U 22016AE  22089.91667824 -.00052529  00000-0 -37170-3 0  9990,2 51742  53.2162 314.8733 0001011  97.1556 216.1887 15.73231585  3720,6727.805,91.531,350.35,348.99,0.0
51742.0,STARLINK-3521,PAYLOAD,2022-03-31 06:00:00,15.73250428,8.85e-05,53.2158,313.2232,95.5968,306.6793,-0.00047137,-0.00066393,0.0,0 STARLINK-3521,1 51742U 22016AE  22090.25001157 -.00066393  00000-0 -47137-3 0  9998,2 51742  53.2158 313.2232 0000885  95.5968 306.6793 15.73250428  7215,6727.751,91.53,350.212,349.021,0.0
51742.0,STARLINK-3521,PAYLOAD,2022-03-31 14:00:01,15.7318581,0.0001188,53.2161,311.572,105.6898,25.557,-8.2949e-05,-0.00012237,0.0,0 STARLINK-3521,1 51742U 22016AE  22090.58334491 -.00012237  00000-0 -82949-4 0  9993,2 51742  53.2161 311.5720 0001188 105.6898  25.5570 15.73185810  3694,6727.936,91.534,350.6,349.001,0.0
51742.0,STARLINK-3521,PAYLOAD,2022-03-31 22:00:00,15.73193598,0.0001258,53.2161,309.9245,91.0999,129.0885,0.00055168,0.000775,0.0,0 STARLINK-3521,1 51742U 22016AE  22090.91667824  .00077500  00000-0  55168-3 0  9993,2 51742  53.2161 309.9245 0001258  91.0999 129.0885 15.73193598  7320,6727.913000000001,91.534,350.625,348.932,0.0
51742.0,STARLINK-3521,PAYLOAD,2022-04-01 14:00:01,15.73285804,0.0001184,53.2158,306.6233,102.6865,295.4584,-0.00046012,-0.00064934,0.0,0 STARLINK-3521,1 51742U 22016AE  22091.58334491 -.00064934  00000-0 -46012-3 0  9995,2 51742  53.2158 306.6233 0001184 102.6865 295.4584 15.73285804  7423,6727.651,91.528,350.31199999999984,348.719,0.0
51742.0,STARLINK-3521,PAYLOAD,2022-04-01 22:00:00,15.73215237,9.06e-05,53.2154,304.9757,89.3951,37.7636,-0.00074775,-0.00104333,0.0,0 STARLINK-3521,1 51742U 22016AE  22091.91667824 -.00104333  00000-0 -74775-3 0  9996,2 51742  53.2154 304.9757 0000906  89.3951  37.7636 15.73215237  7472,6727.852,91.532,350.326,349.107,0.0
51742.0,STARLINK-3521,PAYLOAD,2022-04-02 14:00:01,15.73129796,0.0001114,53.2154,301.6743,102.246,202.7698,0.00054089,0.00075748,0.0,0 STARLINK-3521,1 51742U 22016AE  22092.58335648  .00075748  00000-0  54089-3 0  9997,2 51742  53.2154 301.6743 0001114 102.2460 202.7698 15.73129796  7581,6728.095,91.537,350.71,349.211,0.0
51742.0,STARLINK-3521,PAYLOAD,2022-04-02 22:00:01,15.73181474,0.0001028,53.2154,300.0269,86.7996,307.1125,-0.00042494,-0.00059786,0.0,0 STARLINK-3521,1 51742U 22016AE  22092.91668981 -.00059786  00000-0 -42494-3 0  9996,2 51742  53.2154 300.0269 0001028  86.7996 307.1125 15.73181474  3662,6727.948,91.534,350.505,349.121,0.0
51742.0,STARLINK-3521,PAYLOAD,2022-04-03 04:00:00,15.73138932,9.88e-05,53.2151,298.7892,84.6082,285.905,0.00014682,0.00019981,0.0,0 STARLINK-3521,1 51742U 22016AE  22093.16667824  .00019981  00000-0  14682-3 0  9998,2 51742  53.2151 298.7892 0000988  84.6082 285.9050 15.73138932  7677,6728.069,91.537,350.599,349.27,0.0
51742.0,STARLINK-3521,PAYLOAD,2022-04-03 22:00:00,15.73130136,0.0001318,53.215,295.0787,82.9645,217.5045,0.000589,0.0008261,0.0,0 STARLINK-3521,1 51742U 22016AE  22093.91667824  .00082610  00000-0  58900-3 0  9991,2 51742  53.2150 295.0787 0001318  82.9645 217.5045 15.73130136  3694,6728.094,91.537,350.846,349.0730000000001,0.0
51742.0,STARLINK-3521,PAYLOAD,2022-04-04 14:00:01,15.73244787,0.0001062,53.2152,291.7773,94.8867,23.4214,-4.2004e-05,-6.521e-05,0.0,0 STARLINK-3521,1 51742U 22016AE  22094.58334491 -.00006521  00000-0 -42004-4 0  9994,2 51742  53.2152 291.7773 0001062  94.8867  23.4214 15.73244787  7894,6727.767,91.531,350.347,348.918,0.0
51742.0,STARLINK-3521,PAYLOAD,2022-04-04 22:00:00,15.73233771,0.0001125,53.2153,290.1297,74.6086,132.7088,3.9245e-05,4.899e-05,0.0,0 STARLINK-3521,1 51742U 22016AE  22094.91667824  .00004899  00000-0  39245-4 0  9997,2 51742  53.2153 290.1297 0001125  74.6086 132.7088 15.73233771  3663,6727.799,91.531,350.421,348.907,0.0
51742.0,STARLINK-3521,PAYLOAD,2022-04-05 14:00:01,15.7335487,0.0001094,53.2165,286.8168,94.476,290.8469,-0.0050882,-0.00665255,0.0,0 STARLINK-3521,1 51742U 22016AE  22095.58335648 -.00665255  00000-0 -50882-2 0  9996,2 51742  53.2165 286.8168 0001094  94.4760 290.8469 15.73354870  3707,6727.454000000002,91.524,350.055,348.583,0.0
51742.0,STARLINK-3521,PAYLOAD,2022-04-05 16:00:00,15.73088002,0.0001063,53.2168,286.4033,82.3535,55.2018,-0.0023841,-0.00321194,0.0,0 STARLINK-3521,1 51742U 22016AE  22095.66667824 -.00321194  00000-0 -23841-2 0  9995,2 51742  53.2168 286.4033 0001063  82.3535  55.2018 15.73088002  8067,6728.215,91.54,350.795,349.36400000000015,0.0
51742.0,STARLINK-3521,PAYLOAD,2022-04-05 22:00:00,15.73105156,0.0001240999999999,53.2173,285.1637,71.7759,42.2348,-0.0048601,-0.00631221,0.0,0 STARLINK-3521,1 51742U 22016AE  22095.91667824 -.00631221  00000-0 -48601-2 0  9999,2 51742  53.2173 285.1637 0001241  71.7759  42.2348 15.73105156  3705,6728.166,91.539,350.866,349.196,0.0
51742.0,STARLINK-3521,PAYLOAD,2022-04-06 06:00:02,15.72656384,0.0001165,53.2175,283.5109,83.3519,119.274,-0.0057276,-0.00721766,0.0,0 STARLINK-3521,1 51742U 22016AE  22096.25002315 -.00721766  00000-0 -57276-2 0  9997,2 51742  53.2175 283.5109 0001165  83.3519 119.2740 15.72656384  8160,6729.445,91.565,352.094,350.527,0.0
51742.0,STARLINK-3521,PAYLOAD,2022-04-06 14:00:01,15.72145522,0.0001125,53.2175,281.8629,82.1026,208.4192,-0.0058342,-0.00719478,0.0,0 STARLINK-3521,1 51742U 22016AE  22096.58334491 -.00719478  00000-0 -58342-2 0  9998,2 51742  53.2175 281.8629 0001125  82.1026 208.4192 15.72145522  3708,6730.903,91.595,353.525,352.011,0.0
51742.0,STARLINK-3521,PAYLOAD,2022-04-06 22:00:00,15.71634039,0.0001012,53.2176,280.2184,82.964,294.9058,-0.0059481,-0.00717822,0.0,0 STARLINK-3521,1 51742U 22016AE  22096.91667824 -.00717822  00000-0 -59481-2 0  9990,2 51742  53.2176 280.2184 0001012  82.9640 294.9058 15.71634039  3697,6732.364000000001,91.624,354.91,353.547,0.0
